start=new Date('2023-01-24T00:00:00.000Z').valueOf();
sats=[{"TLE_LINE1":"1 53688U 22105AS  23023.43047654  .00002078  00000-0  16636-3 0  9995","MEAN_MOTION_DOT":"0.00002078","SEMIMAJOR_AXIS":"6941.144","EPHEMERIS_TYPE":"0","ELEMENT_SET_NO":"999","MEAN_ELEMENT_THEORY":"SGP4","MEAN_MOTION":"15.01260971","INCLINATION":"97.6566","OBJECT_ID":"2022-105AS","RA_OF_ASC_NODE":"266.5662","MEAN_ANOMALY":"260.4726","PERIAPSIS":"561.821","LAUNCH_DATE":"2022-08-31","CENTER_NAME":"EARTH","ECCENTRICITY":"0.00017120","EPOCH":"2023-01-23T10:19:53.173056","ARG_OF_PERICENTER":"99.6692","SITE":"AFWTR","DECAY_DATE":null,"RCS_SIZE":"LARGE","FILE":"3758790","NORAD_CAT_ID":"53688","BSTAR":"0.00016636000000","CLASSIFICATION_TYPE":"U","MEAN_MOTION_DDOT":"0.0000000000000","TIME_SYSTEM":"UTC","REF_FRAME":"TEME","PERIOD":"95.919","GP_ID":"223612959","REV_AT_EPOCH":"2229","COUNTRY_CODE":"US","TLE_LINE2":"2 53688  97.6566 266.5662 0001712  99.6692 260.4726 15.01260971 22290","OBJECT_TYPE":"PAYLOAD","APOAPSIS":"564.197","OBJECT_NAME":"STARLINK-4571"},{"PERIAPSIS":"561.689","LAUNCH_DATE":"2022-08-31","CENTER_NAME":"EARTH","ECCENTRICITY":"0.00018830","SITE":"AFWTR","DECAY_DATE":null,"RCS_SIZE":"LARGE","EPOCH":"2023-01-23T03:58:37.972992","ARG_OF_PERICENTER":"70.9965","MEAN_ELEMENT_THEORY":"SGP4","TLE_LINE1":"1 53689U 22105AT  23023.16571728  .00006325  00000-0  49652-3 0  9993","MEAN_MOTION_DOT":"0.00006325","EPHEMERIS_TYPE":"0","SEMIMAJOR_AXIS":"6941.131","ELEMENT_SET_NO":"999","MEAN_ANOMALY":"289.1463","MEAN_MOTION":"15.01265230","INCLINATION":"97.6576","OBJECT_ID":"2022-105AT","RA_OF_ASC_NODE":"266.3032","TLE_LINE2":"2 53689  97.6576 266.3032 0001883  70.9965 289.1463 15.01265230 22250","OBJECT_TYPE":"PAYLOAD","APOAPSIS":"564.303","COUNTRY_CODE":"US","REV_AT_EPOCH":"2225","OBJECT_NAME":"STARLINK-4562","MEAN_MOTION_DDOT":"0.0000000000000","NORAD_CAT_ID":"53689","FILE":"3758522","BSTAR":"0.00049652000000","CLASSIFICATION_TYPE":"U","PERIOD":"95.919","GP_ID":"223606607","REF_FRAME":"TEME","TIME_SYSTEM":"UTC"},{"RA_OF_ASC_NODE":"266.5656","OBJECT_ID":"2022-105AU","INCLINATION":"97.6571","MEAN_MOTION":"15.01260003","MEAN_ANOMALY":"271.5581","ELEMENT_SET_NO":"999","SEMIMAJOR_AXIS":"6941.147","EPHEMERIS_TYPE":"0","MEAN_MOTION_DOT":"0.00001937","TLE_LINE1":"1 53690U 22105AU  23023.42862644  .00001937  00000-0  15532-3 0  9998","MEAN_ELEMENT_THEORY":"SGP4","ARG_OF_PERICENTER":"88.5865","EPOCH":"2023-01-23T10:17:13.324416","DECAY_DATE":null,"SITE":"AFWTR","RCS_SIZE":"LARGE","ECCENTRICITY":"0.00019350","CENTER_NAME":"EARTH","LAUNCH_DATE":"2022-08-31","PERIAPSIS":"561.669","TIME_SYSTEM":"UTC","REF_FRAME":"TEME","GP_ID":"223612956","PERIOD":"95.919","CLASSIFICATION_TYPE":"U","BSTAR":"0.00015532000000","NORAD_CAT_ID":"53690","FILE":"3758790","MEAN_MOTION_DDOT":"0.0000000000000","OBJECT_NAME":"STARLINK-4570","COUNTRY_CODE":"US","REV_AT_EPOCH":"2229","APOAPSIS":"564.355","OBJECT_TYPE":"PAYLOAD","TLE_LINE2":"2 53690  97.6571 266.5656 0001935  88.5865 271.5581 15.01260003 22296"},{"APOAPSIS":"564.421","OBJECT_TYPE":"PAYLOAD","TLE_LINE2":"2 53691  97.6572 266.5684 0002029  87.6988 272.4468 15.01259800 22297","COUNTRY_CODE":"US","REV_AT_EPOCH":"2229","OBJECT_NAME":"STARLINK-4560","MEAN_MOTION_DDOT":"0.0000000000000","CLASSIFICATION_TYPE":"U","BSTAR":"0.00017450000000","FILE":"3758780","NORAD_CAT_ID":"53691","GP_ID":"223612970","PERIOD":"95.919","REF_FRAME":"TEME","TIME_SYSTEM":"UTC","ECCENTRICITY":"0.00020290","CENTER_NAME":"EARTH","LAUNCH_DATE":"2022-08-31","PERIAPSIS":"561.604","DECAY_DATE":null,"SITE":"AFWTR","RCS_SIZE":"LARGE","ARG_OF_PERICENTER":"87.6988","EPOCH":"2023-01-23T10:17:34.596960","MEAN_ELEMENT_THEORY":"SGP4","SEMIMAJOR_AXIS":"6941.147","EPHEMERIS_TYPE":"0","ELEMENT_SET_NO":"999","MEAN_MOTION_DOT":"0.00002183","TLE_LINE1":"1 53691U 22105AV  23023.42887265  .00002183  00000-0  17450-3 0  9990","MEAN_ANOMALY":"272.4468","OBJECT_ID":"2022-105AV","RA_OF_ASC_NODE":"266.5684","INCLINATION":"97.6572","MEAN_MOTION":"15.01259800"},{"ECCENTRICITY":"0.00018760","PERIAPSIS":"561.716","LAUNCH_DATE":"2022-08-31","CENTER_NAME":"EARTH","ARG_OF_PERICENTER":"82.1336","EPOCH":"2023-01-23T10:14:33.309888","RCS_SIZE":"LARGE","DECAY_DATE":null,"SITE":"AFWTR","MEAN_MOTION_DOT":"0.00001387","SEMIMAJOR_AXIS":"6941.154","ELEMENT_SET_NO":"999","EPHEMERIS_TYPE":"0","TLE_LINE1":"1 53692U 22105AW  23023.42677442  .00001387  00000-0  11260-3 0  9993","MEAN_ELEMENT_THEORY":"SGP4","RA_OF_ASC_NODE":"266.5642","OBJECT_ID":"2022-105AW","MEAN_MOTION":"15.01257796","INCLINATION":"97.6592","MEAN_ANOMALY":"278.0101","REV_AT_EPOCH":"2229","COUNTRY_CODE":"US","OBJECT_TYPE":"PAYLOAD","APOAPSIS":"564.321","TLE_LINE2":"2 53692  97.6592 266.5642 0001876  82.1336 278.0101 15.01257796 22298","OBJECT_NAME":"STARLINK-4572","BSTAR":"0.00011260000000","CLASSIFICATION_TYPE":"U","NORAD_CAT_ID":"53692","FILE":"3759159","MEAN_MOTION_DDOT":"0.0000000000000","TIME_SYSTEM":"UTC","REF_FRAME":"TEME","GP_ID":"223620558","PERIOD":"95.920"},{"EPOCH":"2023-01-23T10:11:53.290176","ARG_OF_PERICENTER":"95.0057","DECAY_DATE":null,"RCS_SIZE":"LARGE","SITE":"AFWTR","LAUNCH_DATE":"2022-08-31","PERIAPSIS":"561.815","CENTER_NAME":"EARTH","ECCENTRICITY":"0.00017200","MEAN_MOTION":"15.01261103","INCLINATION":"97.6588","OBJECT_ID":"2022-105AX","RA_OF_ASC_NODE":"266.5645","MEAN_ANOMALY":"265.1364","TLE_LINE1":"1 53693U 22105AX  23023.42492234  .00001368  00000-0  11106-3 0  9996","MEAN_MOTION_DOT":"0.00001368","EPHEMERIS_TYPE":"0","SEMIMAJOR_AXIS":"6941.143","ELEMENT_SET_NO":"999","MEAN_ELEMENT_THEORY":"SGP4","OBJECT_NAME":"STARLINK-4566","REV_AT_EPOCH":"2229","COUNTRY_CODE":"US","TLE_LINE2":"2 53693  97.6588 266.5645 0001720  95.0057 265.1364 15.01261103 22293","OBJECT_TYPE":"PAYLOAD","APOAPSIS":"564.202","REF_FRAME":"TEME","TIME_SYSTEM":"UTC","PERIOD":"95.919","GP_ID":"223612971","NORAD_CAT_ID":"53693","FILE":"3758780","BSTAR":"0.00011106000000","CLASSIFICATION_TYPE":"U","MEAN_MOTION_DDOT":"0.0000000000000"},{"TIME_SYSTEM":"UTC","REF_FRAME":"TEME","PERIOD":"95.438","GP_ID":"223619760","NORAD_CAT_ID":"53700","FILE":"3759122","BSTAR":"-0.00010794000000","CLASSIFICATION_TYPE":"U","MEAN_MOTION_DDOT":"0.0000000000000","OBJECT_NAME":"STARLINK-4725","COUNTRY_CODE":"US","REV_AT_EPOCH":"2183","TLE_LINE2":"2 53700  53.2196 326.5844 0001325 107.3038 252.8099 15.08835351 21836","OBJECT_TYPE":"PAYLOAD","APOAPSIS":"540.676","MEAN_MOTION":"15.08835351","INCLINATION":"53.2196","RA_OF_ASC_NODE":"326.5844","OBJECT_ID":"2022-107A","MEAN_ANOMALY":"252.8099","TLE_LINE1":"1 53700U 22107A   23023.53575752 -.00002005  00000-0 -10794-3 0  9999","MEAN_MOTION_DOT":"-0.00002005","EPHEMERIS_TYPE":"0","SEMIMAJOR_AXIS":"6917.895","ELEMENT_SET_NO":"999","MEAN_ELEMENT_THEORY":"SGP4","EPOCH":"2023-01-23T12:51:29.449728","ARG_OF_PERICENTER":"107.3038","DECAY_DATE":null,"RCS_SIZE":"LARGE","SITE":"AFETR","LAUNCH_DATE":"2022-09-05","PERIAPSIS":"538.843","CENTER_NAME":"EARTH","ECCENTRICITY":"0.00013250"},{"MEAN_MOTION_DDOT":"0.0000000000000","FILE":"3758534","NORAD_CAT_ID":"53701","BSTAR":"-0.00011361000000","CLASSIFICATION_TYPE":"U","PERIOD":"95.438","GP_ID":"223606714","TIME_SYSTEM":"UTC","REF_FRAME":"TEME","TLE_LINE2":"2 53701  53.2175 327.7450 0001259  83.1891 276.9244 15.08837836 21798","OBJECT_TYPE":"PAYLOAD","APOAPSIS":"540.623","REV_AT_EPOCH":"2179","COUNTRY_CODE":"US","OBJECT_NAME":"STARLINK-4711","MEAN_ELEMENT_THEORY":"SGP4","TLE_LINE1":"1 53701U 22107B   23023.26711190 -.00002095  00000-0 -11361-3 0  9998","MEAN_MOTION_DOT":"-0.00002095","ELEMENT_SET_NO":"999","SEMIMAJOR_AXIS":"6917.887","EPHEMERIS_TYPE":"0","MEAN_ANOMALY":"276.9244","MEAN_MOTION":"15.08837836","INCLINATION":"53.2175","OBJECT_ID":"2022-107B","RA_OF_ASC_NODE":"327.7450","PERIAPSIS":"538.881","LAUNCH_DATE":"2022-09-05","CENTER_NAME":"EARTH","ECCENTRICITY":"0.00012590","DECAY_DATE":null,"RCS_SIZE":"LARGE","SITE":"AFETR","EPOCH":"2023-01-23T06:24:38.468160","ARG_OF_PERICENTER":"83.1891"},{"SEMIMAJOR_AXIS":"6917.886","ELEMENT_SET_NO":"999","EPHEMERIS_TYPE":"0","MEAN_MOTION_DOT":"0.00003795","TLE_LINE1":"1 53702U 22107C   23022.52062819  .00003795  00000-0  25643-3 0  9998","MEAN_ELEMENT_THEORY":"SGP4","RA_OF_ASC_NODE":"316.6550","OBJECT_ID":"2022-107C","INCLINATION":"53.2172","MEAN_MOTION":"15.08838230","MEAN_ANOMALY":"273.3076","ECCENTRICITY":"0.00019660","CENTER_NAME":"EARTH","LAUNCH_DATE":"2022-09-05","PERIAPSIS":"538.391","ARG_OF_PERICENTER":"86.8141","EPOCH":"2023-01-22T12:29:42.275616","SITE":"AFETR","DECAY_DATE":null,"RCS_SIZE":"LARGE","CLASSIFICATION_TYPE":"U","BSTAR":"0.00025643000000","FILE":"3757867","NORAD_CAT_ID":"53702","MEAN_MOTION_DDOT":"0.0000000000000","REF_FRAME":"TEME","TIME_SYSTEM":"UTC","GP_ID":"223593562","PERIOD":"95.438","COUNTRY_CODE":"US","REV_AT_EPOCH":"2188","APOAPSIS":"541.111","OBJECT_TYPE":"PAYLOAD","TLE_LINE2":"2 53702  53.2172 316.6550 0001966  86.8141 273.3076 15.08838230 21880","OBJECT_NAME":"STARLINK-4724"},{"DECAY_DATE":null,"RCS_SIZE":"LARGE","SITE":"AFETR","EPOCH":"2023-01-23T13:08:47.425632","ARG_OF_PERICENTER":"73.2511","CENTER_NAME":"EARTH","LAUNCH_DATE":"2022-09-05","PERIAPSIS":"538.858","ECCENTRICITY":"0.00013360","MEAN_ANOMALY":"286.8628","INCLINATION":"53.2191","MEAN_MOTION":"15.08827821","OBJECT_ID":"2022-107D","RA_OF_ASC_NODE":"326.6608","MEAN_ELEMENT_THEORY":"SGP4","TLE_LINE1":"1 53703U 22107D   23023.54777113 -.00001621  00000-0 -83825-4 0  9997","SEMIMAJOR_AXIS":"6917.918","ELEMENT_SET_NO":"999","EPHEMERIS_TYPE":"0","MEAN_MOTION_DOT":"-0.00001621","OBJECT_NAME":"STARLINK-4731","TLE_LINE2":"2 53703  53.2191 326.6608 0001336  73.2511 286.8628 15.08827821 21830","APOAPSIS":"540.707","OBJECT_TYPE":"PAYLOAD","REV_AT_EPOCH":"2183","COUNTRY_CODE":"US","PERIOD":"95.438","GP_ID":"223613062","TIME_SYSTEM":"UTC","REF_FRAME":"TEME","MEAN_MOTION_DDOT":"0.0000000000000","FILE":"3758786","NORAD_CAT_ID":"53703","CLASSIFICATION_TYPE":"U","BSTAR":"-0.00008382500000"}];
